NORAD_CAT_ID,OBJECT_NAME,OBJECT_TYPE,EPOCH,MEAN_MOTION,ECCENTRICITY,INCLINATION,RA_OF_ASC_NODE,ARG_OF_PERICENTER,MEAN_ANOMALY,BSTAR,MEAN_MOTION_DOT,MEAN_MOTION_DDOT,TLE_LINE0,TLE_LINE1,TLE_LINE2,SEMIMAJOR_AXIS,PERIOD,APOGEE,PERIGEE,DECAYED
52115.0,STARLINK-3685,PAYLOAD,2022-06-06 14:00:01,15.19400274,0.0001484,53.2174,118.9735,54.3098,246.9367,-0.036399,-0.00726691,0.0,0 STARLINK-3685,1 52115U 22029AD  22157.58334491 -.00726691  00000-0 -36399-1 0  9997,2 52115  53.2174 118.9735 0001484  54.3098 246.9367 15.19400274  1302,6885.7890000000025,94.774,508.676,506.632,0.0
52115.0,STARLINK-3685,PAYLOAD,2022-06-06 22:00:00,15.18888555,0.000164,53.2177,117.4536,43.7366,281.4815,-0.03671,-0.00722382,0.0,0 STARLINK-3685,1 52115U 22029AD  22157.91667824 -.00722382  00000-0 -36710-1 0  9993,2 52115  53.2177 117.4536 0001640  43.7366 281.4815 15.18888555 13689,6887.335,94.806,510.33,508.071,0.0
52115.0,STARLINK-3685,PAYLOAD,2022-06-07 14:00:01,15.17869643,0.0001425,53.2175,114.4188,52.1208,319.2009,-0.037992,-0.00725582,0.0,0 STARLINK-3685,1 52115U 22029AD  22158.58334491 -.00725582  00000-0 -37992-1 0  9996,2 52115  53.2175 114.4188 0001425  52.1208 319.2009 15.17869643  1304,6890.417,94.87,513.264,511.3,0.0
52115.0,STARLINK-3685,PAYLOAD,2022-06-07 22:00:00,15.17358318,0.0001644,53.2177,112.9028,42.3028,351.1521,-0.038366,-0.00722249,0.0,0 STARLINK-3685,1 52115U 22029AD  22158.91667824 -.00722249  00000-0 -38366-1 0  9995,2 52115  53.2177 112.9028 0001644  42.3028 351.1521 15.17358318 13844,6891.965,94.902,514.9630000000002,512.697,0.0
52115.0,STARLINK-3685,PAYLOAD,2022-06-08 14:00:01,15.16338798,0.0001475,53.2176,109.8749,51.522,24.3599,-0.039599,-0.00723792,0.0,0 STARLINK-3685,1 52115U 22029AD  22159.58334491 -.00723792  00000-0 -39599-1 0  9993,2 52115  53.2176 109.8749 0001475  51.5220  24.3599 15.16338798  1307,6895.054,94.966,517.936,515.9019999999998,0.0
52115.0,STARLINK-3685,PAYLOAD,2022-06-08 22:00:01,15.15828177,0.0001702,53.2176,108.3625,43.4605,52.7792,-0.040089,-0.00722251,0.0,0 STARLINK-3685,1 52115U 22029AD  22159.91668981 -.00722251  00000-0 -40089-1 0  9999,2 52115  53.2176 108.3625 0001702  43.4605  52.7792 15.15828177 13996,6896.602,94.998,519.641,517.294,0.0
52115.0,STARLINK-3685,PAYLOAD,2022-06-09 14:00:01,15.14808228,0.0001597,53.2175,105.3417,50.5741,84.3527,-0.041278,-0.0072234,0.0,0 STARLINK-3685,1 52115U 22029AD  22160.58334491 -.00722340  00000-0 -41278-1 0  9990,2 52115  53.2175 105.3417 0001597  50.5741  84.3527 15.14808228  1306,6899.698,95.062,522.665,520.461,0.0
52115.0,STARLINK-3685,PAYLOAD,2022-06-09 22:00:00,15.14298002,0.0001798,53.2177,103.833,44.6284,108.7545,-0.04185,-0.00721875,0.0,0 STARLINK-3685,1 52115U 22029AD  22160.91667824 -.00721875  00000-0 -41850-1 0  9994,2 52115  53.2177 103.8330 0001798  44.6284 108.7545 15.14298002 14144,6901.248000000001,95.094,524.3530000000002,521.872,0.0
52115.0,STARLINK-3685,PAYLOAD,2022-06-10 14:00:01,15.13278278,0.0001589,53.2175,100.8187,55.3727,133.0838,-0.04309,-0.00722102,0.0,0 STARLINK-3685,1 52115U 22029AD  22161.58334491 -.00722102  00000-0 -43090-1 0  9991,2 52115  53.2175 100.8187 0001589  55.3727 133.0838 15.13278278  1300,6904.348000000001,95.158,527.31,525.115,0.0
52115.0,STARLINK-3685,PAYLOAD,2022-06-10 22:00:00,15.12767591,0.0001794,53.2176,99.3138,47.1076,157.9666,-0.043645,-0.00721061,0.0,0 STARLINK-3685,1 52115U 22029AD  22161.91667824 -.00721061  00000-0 -43645-1 0  9996,2 52115  53.2176  99.3138 0001794  47.1076 157.9666 15.12767591 14299,6905.901,95.19,529.005,526.5269999999998,0.0
52115.0,STARLINK-3685,PAYLOAD,2022-06-11 22:00:00,15.11237594,0.0001730999999999,53.2174,94.8055,48.7665,202.4838,-0.045535,-0.00720758,0.0,0 STARLINK-3685,1 52115U 22029AD  22162.91667824 -.00720758  00000-0 -45535-1 0  9999,2 52115  53.2174  94.8055 0001731  48.7665 202.4838 15.11237594 14445,6910.562,95.286,533.623,531.23,0.0
52115.0,STARLINK-3685,PAYLOAD,2022-06-12 14:00:01,15.10217632,0.0001573,53.2175,91.8054,52.6487,226.3222,-0.046839,-0.00720658,0.0,0 STARLINK-3685,1 52115U 22029AD  22163.58334491 -.00720658  00000-0 -46839-1 0  9991,2 52115  53.2175  91.8054 0001573  52.6487 226.3222 15.10217632  1305,6913.6730000000025,95.35,536.625,534.45,0.0
52115.0,STARLINK-3685,PAYLOAD,2022-06-12 22:00:00,15.09708558,0.00016,53.2174,90.3077,52.574,239.3372,-0.047639,-0.0072257,0.0,0 STARLINK-3685,1 52115U 22029AD  22163.91667824 -.00722570  00000-0 -47639-1 0  9991,2 52115  53.2174  90.3077 0001600  52.5740 239.3372 15.09708558 14590,6915.227,95.383,538.198,535.985,0.0
52115.0,STARLINK-3685,PAYLOAD,2022-06-13 06:00:02,15.09067006,0.0001704,53.2173,88.8116,49.5153,254.8094,-0.021108,-0.00323446,0.0,0 STARLINK-3685,1 52115U 22029AD  22164.25002315 -.00323446  00000-0 -21108-1 0  9999,2 52115  53.2173  88.8116 0001704  49.5153 254.8094 15.09067006 14649,6917.187,95.423,540.23,537.873,0.0
52115.0,STARLINK-3685,PAYLOAD,2022-06-13 14:00:01,15.08836231,0.0001654,53.2174,87.3134,48.5505,267.4347,8.7924e-05,1.111e-05,0.0,0 STARLINK-3685,1 52115U 22029AD  22164.58334491  .00001111  00000-0  87924-4 0  9999,2 52115  53.2174  87.3134 0001654  48.5505 267.4347 15.08836231 14697,6917.892,95.438,540.901,538.613,0.0
52115.0,STARLINK-3685,PAYLOAD,2022-06-13 22:00:00,15.08837578,0.0001708,53.2175,85.8176,48.795,278.7814,-5.3713e-05,-1.143e-05,0.0,0 STARLINK-3685,1 52115U 22029AD  22164.91667824 -.00001143  00000-0 -53713-4 0  9991,2 52115  53.2175  85.8176 0001708  48.7950 278.7814 15.08837578  1306,6917.888000000001,95.438,540.934,538.571,0.0
52115.0,STARLINK-3685,PAYLOAD,2022-06-14 14:00:01,15.08845723,0.0001582,53.2164,82.8147,50.9412,300.0494,-0.0014005,-0.00022511,0.0,0 STARLINK-3685,1 52115U 22029AD  22165.58334491 -.00022511  00000-0 -14005-2 0  9997,2 52115  53.2164  82.8147 0001582  50.9412 300.0494 15.08845723 14855,6917.863,95.437,540.822,538.633,0.0
52115.0,STARLINK-3685,PAYLOAD,2022-06-14 22:00:00,15.08849129,0.0001669,53.2166,81.3191,50.8664,311.7062,-0.0046901,-0.00074182,0.0,0 STARLINK-3685,1 52115U 22029AD  22165.91667824 -.00074182  00000-0 -46901-2 0  9994,2 52115  53.2166  81.3191 0001669  50.8664 311.7062 15.08849129  1304,6917.852,95.437,540.872,538.563,0.0
52115.0,STARLINK-3685,PAYLOAD,2022-06-15 14:00:01,15.08825916,0.000159,53.2164,78.3259,52.684,333.0116,0.00038268,5.805e-05,0.0,0 STARLINK-3685,1 52115U 22029AD  22166.58334491  .00005805  00000-0  38268-3 0  9991,2 52115  53.2164  78.3259 0001590  52.6840 333.0116 15.08825916  1307,6917.9230000000025,95.438,540.888,538.688,0.0
52115.0,STARLINK-3685,PAYLOAD,2022-06-15 22:00:00,15.08840536,0.0001739,53.2166,76.8305,54.3137,342.967,-0.0016660999999999,-0.00026707,0.0,0 STARLINK-3685,1 52115U 22029AD  22166.91667824 -.00026707  00000-0 -16661-2 0  9995,2 52115  53.2166  76.8305 0001739  54.3137 342.9670 15.08840536 15053,6917.879,95.438,540.947,538.5409999999998,0.0
52115.0,STARLINK-3685,PAYLOAD,2022-06-16 02:00:01,15.08820401,0.0001837,53.2163,76.0831,51.1891,171.8929,0.0015354,0.00024219,0.0,0 STARLINK-3685,1 52115U 22029AD  22167.08334491  .00024219  00000-0  15354-2 0  9997,2 52115  53.2163  76.0831 0001837  51.1891 171.8929 15.08820401  1305,6917.94,95.439,541.076,538.534,0.0
52115.0,STARLINK-3685,PAYLOAD,2022-06-19 14:00:01,15.08825341,0.0001526,53.2148,60.3685,61.2125,103.5697,0.0023721,0.00037651,0.0,0 STARLINK-3685,1 52115U 22029AD  22170.58334491  .00037651  00000-0  23721-2 0  9997,2 52115  53.2148  60.3685 0001526  61.2125 103.5697 15.08825341  1300,6917.925,95.438,540.846,538.735,0.0
52115.0,STARLINK-3685,PAYLOAD,2022-06-19 22:00:00,15.0885225,0.0001716,53.215,58.8735,59.0286,117.3543,-0.0022503,-0.00035936,0.0,0 STARLINK-3685,1 52115U 22029AD  22170.91667824 -.00035936  00000-0 -22503-2 0  9996,2 52115  53.2150  58.8735 0001716  59.0286 117.3543 15.08852250  1307,6917.843000000003,95.437,540.895,538.521,0.0
52115.0,STARLINK-3685,PAYLOAD,2022-06-20 12:00:00,15.088338,0.0001633,53.2154,56.2533,61.2734,45.3994,0.00057976,8.949e-05,0.0,0 STARLINK-3685,1 52115U 22029AD  22171.50001157  .00008949  00000-0  57976-3 0  9998,2 52115  53.2154  56.2533 0001633  61.2734  45.3994 15.08833800 15743,6917.899,95.438,540.894,538.635,0.0
52115.0,STARLINK-3685,PAYLOAD,2022-06-20 14:00:01,15.08836763,0.0001636999999999,53.2153,55.8789,62.79,136.7808,0.00010663,1.409e-05,0.0,0 STARLINK-3685,1 52115U 22029AD  22171.58334491  .00001409  00000-0  10663-3 0  9992,2 52115  53.2153  55.8789 0001637  62.7900 136.7808 15.08836763  1302,6917.89,95.438,540.888,538.623,0.0
52115.0,STARLINK-3685,PAYLOAD,2022-06-20 22:00:00,15.08841431,0.0001751,53.2156,54.3842,57.8099,153.3668,-0.0014537,-0.0002335,0.0,0 STARLINK-3685,1 52115U 22029AD  22171.91667824 -.00023350  00000-0 -14537-2 0  9992,2 52115  53.2156  54.3842 0001751  57.8099 153.3668 15.08841431  1307,6917.876,95.437,540.952,538.53,0.0
52115.0,STARLINK-3685,PAYLOAD,2022-06-21 14:00:01,15.08841854,0.0001675999999999,53.216,51.3895,63.0758,171.2903,0.00034673,5.235e-05,0.0,0 STARLINK-3685,1 52115U 22029AD  22172.58334491  .00005235  00000-0  34673-3 0  9991,2 52115  53.2160  51.3895 0001676  63.0758 171.2903 15.08841854 15905,6917.875,95.437,540.899,538.58,0.0
52115.0,STARLINK-3685,PAYLOAD,2022-06-21 22:00:00,15.08833045,0.0001863,53.2161,49.8947,59.3305,186.6386,-0.00018126,-3.171e-05,0.0,0 STARLINK-3685,1 52115U 22029AD  22172.91667824 -.00003171  00000-0 -18126-3 0  9991,2 52115  53.2161  49.8947 0001863  59.3305 186.6386 15.08833045  1307,6917.901999999999,95.438,541.055,538.4780000000002,0.0
52115.0,STARLINK-3685,PAYLOAD,2022-06-22 14:00:01,15.08803423,0.0001659,53.2165,46.9003,64.0033,205.1398,0.0029105,0.00046291,0.0,0 STARLINK-3685,1 52115U 22029AD  22173.58334491  .00046291  00000-0  29105-2 0  9992,2 52115  53.2165  46.9003 0001659  64.0033 205.1398 15.08803423 16051,6917.9919999999975,95.44,541.005,538.7090000000002,0.0
